{
  "type": "FeatureCollection",
  "features": [
    {
      "type": "Feature",
      "properties": {
        "norad_id": 66941,
        "name": "STARLINK-36088",
        "group": "last-30-days",
        "lat": -23.942063975643055,
        "lon": -43.467900225978596,
        "alt_km": 414.9132103313377,
        "timestamp": "2025-12-27T17:24:56.107516+00:00",
        "meta_object_name": "STARLINK-36088",
        "meta_object_id": "2025-286S",
        "meta_epoch": "2025-12-27T12:00:02.000160",
        "meta_mean_motion": 15.52885207,
        "meta_eccentricity": 0.0001454,
        "meta_inclination": 53.1597,
        "meta_ra_of_asc_node": 337.0607,
        "meta_arg_of_pericenter": 72.359,
        "meta_mean_anomaly": 75.6226,
        "meta_ephemeris_type": 0,
        "meta_classification_type": "U",
        "meta_norad_cat_id": 66941,
        "meta_element_set_no": 999,
        "meta_rev_at_epoch": 436,
        "meta_bstar": -0.036096,
        "meta_mean_motion_dot": -0.0203561,
        "meta_mean_motion_ddot": 0,
        "tle_line1": "1 66941U 25286S   25361.50002315 -.02035610  00000+0 -36096-1 0  9995",
        "tle_line2": "2 66941  53.1597 337.0607 0001454  72.3590  75.6226 15.52885207  4368"
      },
      "geometry": {
        "type": "Point",
        "coordinates": [
          -43.467900225978596,
          -23.942063975643055
        ]
      }
    },
    {
      "type": "Feature",
      "properties": {
        "norad_id": 66942,
        "name": "STARLINK-36100",
        "group": "last-30-days",
        "lat": -43.729831577288486,
        "lon": -69.78838597656701,
        "alt_km": 421.87155815811184,
        "timestamp": "2025-12-27T17:24:56.107526+00:00",
        "meta_object_name": "STARLINK-36100",
        "meta_object_id": "2025-286T",
        "meta_epoch": "2025-12-27T12:00:02.000160",
        "meta_mean_motion": 15.50953943,
        "meta_eccentricity": 0.0001504,
        "meta_inclination": 53.1596,
        "meta_ra_of_asc_node": 337.1169,
        "meta_arg_of_pericenter": 49.8796,
        "meta_mean_anomaly": 70.3568,
        "meta_ephemeris_type": 0,
        "meta_classification_type": "U",
        "meta_norad_cat_id": 66942,
        "meta_element_set_no": 999,
        "meta_rev_at_epoch": 429,
        "meta_bstar": -0.039389,
        "meta_mean_motion_dot": -0.0206732,
        "meta_mean_motion_ddot": 0,
        "tle_line1": "1 66942U 25286T   25361.50002315 -.02067320  00000+0 -39389-1 0  9997",
        "tle_line2": "2 66942  53.1596 337.1169 0001504  49.8796  70.3568 15.50953943  4299"
      },
      "geometry": {
        "type": "Point",
        "coordinates": [
          -69.78838597656701,
          -43.729831577288486
        ]
      }
    },
    {
      "type": "Feature",
      "properties": {
        "norad_id": 66943,
        "name": "STARLINK-36109",
        "group": "last-30-days",
        "lat": -42.6432776089494,
        "lon": -67.63486925410274,
        "alt_km": 421.8245793803608,
        "timestamp": "2025-12-27T17:24:56.107536+00:00",
        "meta_object_name": "STARLINK-36109",
        "meta_object_id": "2025-286U",
        "meta_epoch": "2025-12-27T12:00:02.000160",
        "meta_mean_motion": 15.50955357,
        "meta_eccentricity": 0.0001533,
        "meta_inclination": 53.1595,
        "meta_ra_of_asc_node": 337.1128,
        "meta_arg_of_pericenter": 51.288,
        "meta_mean_anomaly": 70.8627,
        "meta_ephemeris_type": 0,
        "meta_classification_type": "U",
        "meta_norad_cat_id": 66943,
        "meta_element_set_no": 999,
        "meta_rev_at_epoch": 429,
        "meta_bstar": -0.039409,
        "meta_mean_motion_dot": -0.02068369,
        "meta_mean_motion_ddot": 0,
        "tle_line1": "1 66943U 25286U   25361.50002315 -.02068369  00000+0 -39409-1 0  9995",
        "tle_line2": "2 66943  53.1595 337.1128 0001533  51.2880  70.8627 15.50955357  4299"
      },
      "geometry": {
        "type": "Point",
        "coordinates": [
          -67.63486925410274,
          -42.6432776089494
        ]
      }
    },
    {
      "type": "Feature",
      "properties": {
        "norad_id": 66944,
        "name": "STARLINK-36112",
        "group": "last-30-days",
        "lat": -41.51439082942992,
        "lon": -65.5508165229124,
        "alt_km": 421.8599503272635,
        "timestamp": "2025-12-27T17:24:56.107548+00:00",
        "meta_object_name": "STARLINK-36112",
        "meta_object_id": "2025-286V",
        "meta_epoch": "2025-12-27T12:00:02.000160",
        "meta_mean_motion": 15.50950282,
        "meta_eccentricity": 0.0001368,
        "meta_inclination": 53.1595,
        "meta_ra_of_asc_node": 337.1086,
        "meta_arg_of_pericenter": 63.9907,
        "meta_mean_anomaly": 60.0768,
        "meta_ephemeris_type": 0,
        "meta_classification_type": "U",
        "meta_norad_cat_id": 66944,
        "meta_element_set_no": 999,
        "meta_rev_at_epoch": 436,
        "meta_bstar": -0.038963,
        "meta_mean_motion_dot": -0.02047071,
        "meta_mean_motion_ddot": 0,
        "tle_line1": "1 66944U 25286V   25361.50002315 -.02047071  00000+0 -38963-1 0  9997",
        "tle_line2": "2 66944  53.1595 337.1086 0001368  63.9907  60.0768 15.50950282  4366"
      },
      "geometry": {
        "type": "Point",
        "coordinates": [
          -65.5508165229124,
          -41.51439082942992
        ]
      }
    },
    {
      "type": "Feature",
      "properties": {
        "norad_id": 66945,
        "name": "STARLINK-36110",
        "group": "last-30-days",
        "lat": -40.35164119994485,
        "lon": -63.54387743186905,
        "alt_km": 421.88587155466394,
        "timestamp": "2025-12-27T17:24:56.107559+00:00",
        "meta_object_name": "STARLINK-36110",
        "meta_object_id": "2025-286W",
        "meta_epoch": "2025-12-27T12:00:02.000160",
        "meta_mean_motion": 15.50937567,
        "meta_eccentricity": 0.0001376,
        "meta_inclination": 53.1593,
        "meta_ra_of_asc_node": 337.1047,
        "meta_arg_of_pericenter": 70.9678,
        "meta_mean_anomaly": 55.0214,
        "meta_ephemeris_type": 0,
        "meta_classification_type": "U",
        "meta_norad_cat_id": 66945,
        "meta_element_set_no": 999,
        "meta_rev_at_epoch": 436,
        "meta_bstar": -0.038612,
        "meta_mean_motion_dot": -0.02029791,
        "meta_mean_motion_ddot": 0,
        "tle_line1": "1 66945U 25286W   25361.50002315 -.02029791  00000+0 -38612-1 0  9998",
        "tle_line2": "2 66945  53.1593 337.1047 0001376  70.9678  55.0214 15.50937567  4365"
      },
      "geometry": {
        "type": "Point",
        "coordinates": [
          -63.54387743186905,
          -40.35164119994485
        ]
      }
    },
    {
      "type": "Feature",
      "properties": {
        "norad_id": 66946,
        "name": "STARLINK-36115",
        "group": "last-30-days",
        "lat": -39.155682085872414,
        "lon": -61.606767538948475,
        "alt_km": 421.85248554107966,
        "timestamp": "2025-12-27T17:24:56.107569+00:00",
        "meta_object_name": "STARLINK-36115",
        "meta_object_id": "2025-286X",
        "meta_epoch": "2025-12-27T12:00:02.000160",
        "meta_mean_motion": 15.50940082,
        "meta_eccentricity": 0.0001464,
        "meta_inclination": 53.1592,
        "meta_ra_of_asc_node": 337.1006,
        "meta_arg_of_pericenter": 71.9735,
        "meta_mean_anomaly": 55.9305,
        "meta_ephemeris_type": 0,
        "meta_classification_type": "U",
        "meta_norad_cat_id": 66946,
        "meta_element_set_no": 999,
        "meta_rev_at_epoch": 436,
        "meta_bstar": -0.038676,
        "meta_mean_motion_dot": -0.02033036,
        "meta_mean_motion_ddot": 0,
        "tle_line1": "1 66946U 25286X   25361.50002315 -.02033036  00000+0 -38676-1 0  9996",
        "tle_line2": "2 66946  53.1592 337.1006 0001464  71.9735  55.9305 15.50940082  4369"
      },
      "geometry": {
        "type": "Point",
        "coordinates": [
          -61.606767538948475,
          -39.155682085872414
        ]
      }
    },
    {
      "type": "Feature",
      "properties": {
        "norad_id": 66947,
        "name": "STARLINK-36089",
        "group": "last-30-days",
        "lat": -36.67115199836882,
        "lon": -57.92361645924347,
        "alt_km": 421.7426858196977,
        "timestamp": "2025-12-27T17:24:56.107579+00:00",
        "meta_object_name": "STARLINK-36089",
        "meta_object_id": "2025-286Y",
        "meta_epoch": "2025-12-27T12:00:02.000160",
        "meta_mean_motion": 15.50941002,
        "meta_eccentricity": 0.0001536,
        "meta_inclination": 53.1594,
        "meta_ra_of_asc_node": 337.0922,
        "meta_arg_of_pericenter": 74.6931,
        "meta_mean_anomaly": 57.0444,
        "meta_ephemeris_type": 0,
        "meta_classification_type": "U",
        "meta_norad_cat_id": 66947,
        "meta_element_set_no": 999,
        "meta_rev_at_epoch": 436,
        "meta_bstar": -0.038722,
        "meta_mean_motion_dot": -0.02035291,
        "meta_mean_motion_ddot": 0,
        "tle_line1": "1 66947U 25286Y   25361.50002315 -.02035291  00000+0 -38722-1 0  9994",
        "tle_line2": "2 66947  53.1594 337.0922 0001536  74.6931  57.0444 15.50941002  4366"
      },
      "geometry": {
        "type": "Point",
        "coordinates": [
          -57.92361645924347,
          -36.67115199836882
        ]
      }
    }
  ]
}